     2.11           GLONASS NAV DATA                        RINEX VERSION / TYPE
CONVBIN 2.4.3                           20160828 162200 UTC PGM / RUN BY / DATE 
log: Rover.ubx                                              COMMENT             
format: u-blox                                              COMMENT             
                                                            END OF HEADER       
20 16  8 28 15 45  0.0 -.250473618507E-03 -.909494701773E-12  .560700000000E+05
     .188104765625E+05  .169796562195E+01 -.931322574615E-09  .000000000000E+00
     .729407568359E+04  .131482982635E+01  .000000000000E+00  .200000000000E+01
     .156391166992E+05 -.265067672729E+01 -.186264514923E-08  .000000000000E+00
 5 16  8 28 15 45  0.0 -.310847535729E-04 -.181898940355E-11  .560700000000E+05
     .143083261719E+05 -.264993953705E+01 -.931322574615E-09  .000000000000E+00
     .531123779297E+04  .899435043335E+00  .000000000000E+00  .100000000000E+01
     .204333232422E+05  .162201118469E+01 -.279396772385E-08  .000000000000E+00
 6 16  8 28 15 45  0.0  .951318070292E-04  .909494701773E-12  .560700000000E+05
     .241373422852E+05 -.822113990784E+00 -.186264514923E-08  .000000000000E+00
    -.569413085938E+04  .156226158142E+00 -.931322574615E-09 -.400000000000E+01
     .603097802734E+04  .343095684052E+01  .000000000000E+00  .000000000000E+00
21 16  8 28 15 45  0.0  .791726633906E-04  .181898940355E-11  .560700000000E+05
     .848875537109E+04  .239299869537E+01 -.931322574615E-09  .000000000000E+00
    -.681873632812E+04  .206539535522E+01 -.279396772385E-08  .400000000000E+01
     .230594091797E+05 -.272579193115E+00 -.186264514923E-08  .000000000000E+00
 4 16  8 28 15 45  0.0  .182341784239E-03  .909494701773E-12  .560700000000E+05
    -.326782080078E+04 -.283254146576E+01  .000000000000E+00  .000000000000E+00
     .123391040039E+05  .105147743225E+01  .000000000000E+00  .600000000000E+01
     .221013173828E+05 -.100787830353E+01 -.279396772385E-08  .000000000000E+00
19 16  8 28 15 45  0.0 -.163097865880E-03  .000000000000E+00  .561000000000E+05
     .184425722656E+05 -.190486907959E-01 -.931322574615E-09  .000000000000E+00
     .175499873047E+05 -.300838470459E+00  .279396772385E-08  .300000000000E+01
    -.157739941406E+04 -.358490180969E+01 -.931322574615E-09  .000000000000E+00
12 16  8 28 15 45  0.0 -.442881137133E-04  .000000000000E+00  .561000000000E+05
    -.717801708984E+04  .439484596252E+00  .000000000000E+00  .000000000000E+00
    -.135369423828E+05 -.275992774963E+01 -.465661287308E-08 -.100000000000E+01
     .203185810547E+05 -.169796085358E+01 -.931322574615E-09  .000000000000E+00
 7 16  8 28 15 45  0.0 -.106580555439E-04  .000000000000E+00  .569700000000E+05
     .194637705078E+05  .136612319946E+01 -.931322574615E-09  .000000000000E+00
    -.123658974609E+05 -.629607200623E+00 -.931322574615E-09  .500000000000E+01
    -.108990737305E+05  .314052486420E+01  .186264514923E-08  .000000000000E+00
